{
  "addresses": [
    {
      "id": "ac01",
      "name": "João Almeida",
      "zip": "69900-000",
      "state": "AC",
      "city": "Rio Branco",
      "neighborhood": "Centro",
      "street": "Rua Marechal Deodoro"
    },
    {
      "id": "al01",
      "name": "Maria Oliveira",
      "zip": "57010-020",
      "state": "AL",
      "city": "Maceió",
      "neighborhood": "Farol",
      "street": "Rua Dr. Juca Sampaio"
    },
    {
      "id": "ap01",
      "name": "Carlos Souza",
      "zip": "68900-000",
      "state": "AP",
      "city": "Macapá",
      "neighborhood": "Centro",
      "street": "Rua General Rondon"
    },
    {
      "id": "am01",
      "name": "Fernanda Lima",
      "zip": "69010-020",
      "state": "AM",
      "city": "Manaus",
      "neighborhood": "Centro",
      "street": "Avenida Eduardo Ribeiro"
    },
    {
      "id": "ba01",
      "name": "Rafael Martins",
      "zip": "40010-000",
      "state": "BA",
      "city": "Salvador",
      "neighborhood": "Pelourinho",
      "street": "Rua do Carmo"
    },
    {
      "id": "ce01",
      "name": "Ana Beatriz",
      "zip": "60010-020",
      "state": "CE",
      "city": "Fortaleza",
      "neighborhood": "Centro",
      "street": "Rua Barão do Rio Branco"
    },
    {
      "id": "df01",
      "name": "Pedro Henrique",
      "zip": "70040-010",
      "state": "DF",
      "city": "Brasília",
      "neighborhood": "Asa Sul",
      "street": "SQS 303"
    },
    {
      "id": "es01",
      "name": "Juliana Castro",
      "zip": "29010-000",
      "state": "ES",
      "city": "Vitória",
      "neighborhood": "Centro",
      "street": "Rua Sete de Setembro"
    },
    {
      "id": "go01",
      "name": "Lucas Pereira",
      "zip": "74010-000",
      "state": "GO",
      "city": "Goiânia",
      "neighborhood": "Setor Central",
      "street": "Avenida Goiás"
    },
    {
      "id": "ma01",
      "name": "Carla Souza",
      "zip": "65010-000",
      "state": "MA",
      "city": "São Luís",
      "neighborhood": "Centro",
      "street": "Rua Grande"
    },
    {
      "id": "mt01",
      "name": "Bruno Santos",
      "zip": "78010-000",
      "state": "MT",
      "city": "Cuiabá",
      "neighborhood": "Centro",
      "street": "Rua 13 de Junho"
    },
    {
      "id": "ms01",
      "name": "Patrícia Fernandes",
      "zip": "79002-400",
      "state": "MS",
      "city": "Campo Grande",
      "neighborhood": "Centro",
      "street": "Rua 13 de Maio"
    },
    {
      "id": "mg01",
      "name": "Thiago Rocha",
      "zip": "30130-010",
      "state": "MG",
      "city": "Belo Horizonte",
      "neighborhood": "Centro",
      "street": "Avenida Afonso Pena"
    },
    {
      "id": "pa01",
      "name": "Mariana Gomes",
      "zip": "66030-000",
      "state": "PA",
      "city": "Belém",
      "neighborhood": "Cidade Velha",
      "street": "Rua Siqueira Mendes"
    },
    {
      "id": "pb01",
      "name": "Daniel Silva",
      "zip": "58010-020",
      "state": "PB",
      "city": "João Pessoa",
      "neighborhood": "Centro",
      "street": "Rua Duque de Caxias"
    },
    {
      "id": "pr01",
      "name": "Aline Moreira",
      "zip": "80010-000",
      "state": "PR",
      "city": "Curitiba",
      "neighborhood": "Centro",
      "street": "Rua XV de Novembro"
    },
    {
      "id": "pe01",
      "name": "Rodrigo Almeida",
      "zip": "50010-000",
      "state": "PE",
      "city": "Recife",
      "neighborhood": "Santo Antônio",
      "street": "Rua do Bom Jesus"
    },
    {
      "id": "pi01",
      "name": "Larissa Nunes",
      "zip": "64000-010",
      "state": "PI",
      "city": "Teresina",
      "neighborhood": "Centro",
      "street": "Rua Miguel Rosa"
    },
    {
      "id": "rj01",
      "name": "Eduardo Fernandes",
      "zip": "20010-020",
      "state": "RJ",
      "city": "Rio de Janeiro",
      "neighborhood": "Centro",
      "street": "Rua Primeiro de Março"
    },
    {
      "id": "rn01",
      "name": "Camila Ribeiro",
      "zip": "59010-200",
      "state": "RN",
      "city": "Natal",
      "neighborhood": "Cidade Alta",
      "street": "Rua João Pessoa"
    },
    {
      "id": "rs01",
      "name": "Felipe Costa",
      "zip": "90010-000",
      "state": "RS",
      "city": "Porto Alegre",
      "neighborhood": "Centro Histórico",
      "street": "Rua dos Andradas"
    },
    {
      "id": "ro01",
      "name": "Isabela Lima",
      "zip": "76801-000",
      "state": "RO",
      "city": "Porto Velho",
      "neighborhood": "Centro",
      "street": "Rua José do Patrocínio"
    },
    {
      "id": "rr01",
      "name": "Marcelo Dias",
      "zip": "69301-000",
      "state": "RR",
      "city": "Boa Vista",
      "neighborhood": "Centro",
      "street": "Rua Benjamin Constant"
    },
    {
      "id": "sc01",
      "name": "Sofia Martins",
      "zip": "88010-400",
      "state": "SC",
      "city": "Florianópolis",
      "neighborhood": "Centro",
      "street": "Rua Felipe Schmidt"
    },
    {
      "id": "sp01",
      "name": "Gustavo Pereira",
      "zip": "01010-000",
      "state": "SP",
      "city": "São Paulo",
      "neighborhood": "Sé",
      "street": "Rua Direita"
    },
    {
      "id": "se01",
      "name": "Beatriz Souza",
      "zip": "49010-000",
      "state": "SE",
      "city": "Aracaju",
      "neighborhood": "Centro",
      "street": "Rua São Cristóvão"
    },
    {
      "id": "to01",
      "name": "Victor Andrade",
      "zip": "77001-000",
      "state": "TO",
      "city": "Palmas",
      "neighborhood": "Centro",
      "street": "Avenida JK"
    }
  ]
}
